NORAD_CAT_ID,OBJECT_NAME,OBJECT_TYPE,EPOCH,MEAN_MOTION,ECCENTRICITY,INCLINATION,RA_OF_ASC_NODE,ARG_OF_PERICENTER,MEAN_ANOMALY,BSTAR,MEAN_MOTION_DOT,MEAN_MOTION_DDOT,TLE_LINE0,TLE_LINE1,TLE_LINE2,SEMIMAJOR_AXIS,PERIOD,APOGEE,PERIGEE,DECAYED
55415.0,STARLINK-5618,PAYLOAD,2023-06-15 04:56:16,14.98365272,0.0002547,70.0004,81.8013,267.9169,92.1698,-0.00061413,-7.419e-05,0.0,0 STARLINK-5618,1 55415U 23014AA  23166.20574521 -.00007419  00000-0 -61413-3 0  9995,2 55415  70.0004  81.8013 0002547 267.9169  92.1698 14.98365272 21063,6950.084,96.105,573.719,570.179,0.0
55415.0,STARLINK-5618,PAYLOAD,2023-06-15 17:45:21,14.98332133,0.0002825,70.0006,80.4549,264.09,95.9937,-2.5354e-05,-3.95e-06,0.0,0 STARLINK-5618,1 55415U 23014AA  23166.73983234 -.00000395  00000-0 -25354-4 0  9999,2 55415  70.0006  80.4549 0002825 264.0900  95.9937 14.98332133 21140,6950.186,96.107,574.015,570.088,0.0
55415.0,STARLINK-5618,PAYLOAD,2023-06-16 04:58:17,14.98338333,0.0002871,70.0003,79.2752,267.4743,92.6087,3.6493e-05,3.43e-06,0.0,0 STARLINK-5618,1 55415U 23014AA  23167.20714559  .00000343  00000-0  36493-4 0  9991,2 55415  70.0003  79.2752 0002871 267.4743  92.6087 14.98338333 21218,6950.167,96.106,574.028,570.037,0.0
55415.0,STARLINK-5618,PAYLOAD,2023-06-16 11:22:49,14.9834105,0.000294,70.0003,78.6019,267.3922,92.6901,-3.4067e-05,-5e-06,0.0,0 STARLINK-5618,1 55415U 23014AA  23167.47418410 -.00000500  00000-0 -34067-4 0  9999,2 55415  70.0003  78.6019 0002940 267.3922  92.6901 14.98341050 22195,6950.159,96.106,574.067,569.98,0.0
55415.0,STARLINK-5618,PAYLOAD,2023-06-16 17:47:21,14.98336954,0.0003048,69.9999,77.9282,268.7353,91.3456,4.0936e-05,3.96e-06,0.0,0 STARLINK-5618,1 55415U 23014AA  23167.74122432  .00000396  00000-0  40936-4 0  9998,2 55415  69.9999  77.9282 0003048 268.7353  91.3456 14.98336954 22236,6950.171,96.107,574.155,569.918,0.0
55415.0,STARLINK-5618,PAYLOAD,2023-06-17 05:00:17,14.98339207,0.0003007,69.9999,76.7501,262.7948,97.287,8.7913e-05,9.56e-06,0.0,0 STARLINK-5618,1 55415U 23014AA  23168.20853886  .00000956  00000-0  87913-4 0  9992,2 55415  69.9999  76.7501 0003007 262.7948  97.2870 14.98339207 21368,6950.164,96.106,574.119,569.94,0.0
55415.0,STARLINK-5618,PAYLOAD,2023-06-17 11:24:50,14.98329254,0.0003167,70.0,76.0776,268.4759,91.6037,-2.556e-05,-3.98e-06,0.0,0 STARLINK-5618,1 55415U 23014AA  23168.47558741 -.00000398  00000-0 -25560-4 0  9995,2 55415  70.0000  76.0776 0003167 268.4759  91.6037 14.98329254 22344,6950.195,96.107,574.261,569.859,0.0
55415.0,STARLINK-5618,PAYLOAD,2023-06-17 17:49:24,14.98312365,0.0003226,69.9995,75.4036,268.5279,91.551,-0.00023371,-2.879e-05,0.0,0 STARLINK-5618,1 55415U 23014AA  23168.74264492 -.00002879  00000-0 -23371-3 0  9995,2 55415  69.9995  75.4036 0003226 268.5279  91.5510 14.98312365 21440,6950.247,96.108,574.355,569.87,0.0
55415.0,STARLINK-5618,PAYLOAD,2023-06-18 03:26:12,14.98319535,0.0003084,69.9996,74.3935,268.1457,91.9349,-0.00015376,-1.927e-05,0.0,0 STARLINK-5618,1 55415U 23014AA  23169.14320159 -.00001927  00000-0 -15376-3 0  9992,2 55415  69.9996  74.3935 0003084 268.1457  91.9349 14.98319535 21500,6950.225,96.108,574.234,569.947,0.0
55415.0,STARLINK-5618,PAYLOAD,2023-06-18 11:26:52,14.9832755,0.0003175,69.9995,73.5524,267.6383,92.4412,-0.00011847,-1.506e-05,0.0,0 STARLINK-5618,1 55415U 23014AA  23169.47699663 -.00001506  00000-0 -11847-3 0  9999,2 55415  69.9995  73.5524 0003175 267.6383  92.4412 14.98327550 22499,6950.2,96.107,574.272,569.859,0.0
55415.0,STARLINK-5618,PAYLOAD,2023-06-19 00:15:56,14.98334156,0.0003238,69.9994,72.2057,267.3119,92.767,-3.4634e-05,-5.06e-06,0.0,0 STARLINK-5618,1 55415U 23014AA  23170.01107055 -.00000506  00000-0 -34634-4 0  9999,2 55415  69.9994  72.2057 0003238 267.3119  92.7670 14.98334156 21633,6950.18,96.107,574.296,569.795,0.0
55415.0,STARLINK-5618,PAYLOAD,2023-06-19 03:28:12,14.98337929,0.0003205,69.9994,71.8689,267.3525,92.7268,1.0015e-05,2.6e-07,0.0,0 STARLINK-5618,1 55415U 23014AA  23170.14458683  .00000026  00000-0  10015-4 0  9991,2 55415  69.9994  71.8689 0003205 267.3525  92.7268 14.98337929 22594,6950.168,96.106,574.261,569.806,0.0
55415.0,STARLINK-5618,PAYLOAD,2023-06-20 00:17:57,14.98325487,0.0003128,69.9997,69.6807,268.5869,91.4932,0.00017457,1.99e-05,0.0,0 STARLINK-5618,1 55415U 23014AA  23171.01247035  .00001990  00000-0  17457-3 0  9992,2 55415  69.9997  69.6807 0003128 268.5869  91.4932 14.98325487 21782,6950.207,96.107,574.246,569.898,0.0
55415.0,STARLINK-5618,PAYLOAD,2023-06-20 09:54:46,14.98324549,0.0002982,69.9999,68.6705,269.2222,90.8595,0.00011962,1.334e-05,0.0,0 STARLINK-5618,1 55415U 23014AA  23171.41303323  .00001334  00000-0  11962-3 0  9996,2 55415  69.9999  68.6705 0002982 269.2222  90.8595 14.98324549 22785,6950.21,96.107,574.147,570.002,0.0
55415.0,STARLINK-5618,PAYLOAD,2023-06-20 21:07:42,14.98326212,0.0002983,69.9999,67.4923,268.0782,92.0035,0.00014531,1.641e-05,0.0,0 STARLINK-5618,1 55415U 23014AA  23171.88035145  .00001641  00000-0  14531-3 0  9997,2 55415  69.9999  67.4923 0002983 268.0782  92.0035 14.98326212 22853,6950.205,96.107,574.143,569.996,0.0
55415.0,STARLINK-5618,PAYLOAD,2023-06-21 01:56:06,14.98335061,0.0002915,70.0001,66.9873,270.6642,89.4183,2.1787e-05,1.67e-06,0.0,0 STARLINK-5618,1 55415U 23014AA  23172.08062812  .00000167  00000-0  21787-4 0  9995,2 55415  70.0001  66.9873 0002915 270.6642  89.4183 14.98335061 21942,6950.177,96.107,574.068,570.016,0.0
55415.0,STARLINK-5618,PAYLOAD,2023-06-21 09:56:46,14.9833823,0.0002938,70.0006,66.1454,269.9987,90.0835,-0.0001535,-1.924e-05,0.0,0 STARLINK-5618,1 55415U 23014AA  23172.41442869 -.00001924  00000-0 -15350-3 0  9998,2 55415  70.0006  66.1454 0002938 269.9987  90.0835 14.98338230 22935,6950.167,96.106,574.074,569.99,0.0
55415.0,STARLINK-5618,PAYLOAD,2023-06-21 19:33:35,14.98330539,0.0002868,70.0005,65.1375,263.4142,96.6691,-6.8798e-05,-9.14e-06,0.0,0 STARLINK-5618,1 55415U 23014AA  23172.81499105 -.00000914  00000-0 -68798-4 0  9990,2 55415  70.0005  65.1375 0002868 263.4142  96.6691 14.98330539 22991,6950.191,96.107,574.05,570.063,0.0
55415.0,STARLINK-5618,PAYLOAD,2023-06-22 01:58:07,14.98327612,0.0002854,70.0006,64.4638,261.6535,98.43,-5.1216e-05,-7.04e-06,0.0,0 STARLINK-5618,1 55415U 23014AA  23173.08203228 -.00000704  00000-0 -51216-4 0  9993,2 55415  70.0006  64.4638 0002854 261.6535  98.4300 14.98327612 22093,6950.2,96.107,574.049,570.082,0.0
55415.0,STARLINK-5618,PAYLOAD,2023-06-23 02:00:08,14.98332369,0.0003101,70.0001,61.9387,266.0016,94.0789,1.1516e-05,4.4e-07,0.0,0 STARLINK-5618,1 55415U 23014AA  23174.08342696  .00000044  00000-0  11516-4 0  9991,2 55415  70.0001  61.9387 0003101 266.0016  94.0789 14.98332369 22245,6950.186,96.107,574.206,569.895,0.0
55415.0,STARLINK-5618,PAYLOAD,2023-06-23 18:01:29,14.98322448,0.0003254,69.9999,60.2543,266.9946,93.084,3.3524e-05,3.07e-06,0.0,0 STARLINK-5618,1 55415U 23014AA  23174.75103211  .00000307  00000-0  33524-4 0  9998,2 55415  69.9999  60.2543 0003254 266.9946  93.0840 14.98322448 22349,6950.216,96.107,574.343,569.82,0.0
55415.0,STARLINK-5618,PAYLOAD,2023-06-24 02:02:09,14.9832745,0.0003107,70.0,59.4121,265.1403,94.9401,7.4469e-05,7.96e-06,0.0,0 STARLINK-5618,1 55415U 23014AA  23175.08482870  .00000796  00000-0  74469-4 0  9991,2 55415  70.0000  59.4121 0003107 265.1403  94.9401 14.98327450 22399,6950.201,96.107,574.225,569.906,0.0
55415.0,STARLINK-5618,PAYLOAD,2023-06-25 02:04:09,14.98335233,0.0003266,69.9997,56.8879,268.1553,91.9232,3.4655e-05,3.21e-06,0.0,0 STARLINK-5618,1 55415U 23014AA  23176.08622449  .00000321  00000-0  34655-4 0  9997,2 55415  69.9997  56.8879 0003266 268.1553  91.9232 14.98335233 22541,6950.177,96.107,574.312,569.772,0.0
55415.0,STARLINK-5618,PAYLOAD,2023-06-25 16:29:22,14.98326116,0.0003113,70.0002,55.3728,269.1683,90.9119,2.5862e-05,2.16e-06,0.0,0 STARLINK-5618,1 55415U 23014AA  23176.68707024  .00000216  00000-0  25862-4 0  9999,2 55415  70.0002  55.3728 0003113 269.1683  90.9119 14.98326116 22637,6950.205,96.107,574.234,569.906,0.0
55415.0,STARLINK-5618,PAYLOAD,2023-06-26 02:06:10,14.98331819,0.0003083,70.0002,54.3627,268.1531,91.9275,6.9475e-05,7.36e-06,0.0,0 STARLINK-5618,1 55415U 23014AA  23177.08762561  .00000736  00000-0  69475-4 0  9996,2 55415  70.0002  54.3627 0003083 268.1531  91.9275 14.98331819 22697,6950.187,96.107,574.195,569.91,0.0
55415.0,STARLINK-5618,PAYLOAD,2023-06-26 16:31:24,14.98326555,0.0003008,70.0002,52.8477,269.4471,90.6343,-5.9804e-05,-8.06e-06,0.0,0 STARLINK-5618,1 55415U 23014AA  23177.68847268 -.00000806  00000-0 -59804-4 0  9995,2 55415  70.0002  52.8477 0003008 269.4471  90.6343 14.98326555 22780,6950.204,96.107,574.159,569.978,0.0
55415.0,STARLINK-5618,PAYLOAD,2023-06-27 18:09:32,14.98331448,0.0003058,70.0002,50.1549,266.0476,94.0334,1.7173e-05,1.12e-06,0.0,0 STARLINK-5618,1 55415U 23014AA  23178.75662779  .00000112  00000-0  17173-4 0  9997,2 55415  70.0002  50.1549 0003058 266.0476  94.0334 14.98331448 22947,6950.188,96.107,574.179,569.928,0.0
55415.0,STARLINK-5618,PAYLOAD,2023-06-29 00:36:06,14.98328197,0.000313,70.0,46.9566,268.0303,92.0498,2.4969e-05,2.05e-06,0.0,0 STARLINK-5618,1 55415U 23014AA  23180.02506960  .00000205  00000-0  24969-4 0  9993,2 55415  70.0000  46.9566 0003130 268.0303  92.0498 14.98328197 23137,6950.198,96.107,574.239,569.888,0.0
55415.0,STARLINK-5618,PAYLOAD,2023-06-30 15:03:19,14.98328894,0.0003225,69.9997,42.9159,269.3137,90.7652,-9.6508e-06,-2.08e-06,0.0,0 STARLINK-5618,1 55415U 23014AA  23181.62730813 -.00000208  00000-0 -96508-5 0  9990,2 55415  69.9997  42.9159 0003225 269.3137  90.7652 14.98328894 23374,6950.196,96.107,574.303,569.82,0.0
55415.0,STARLINK-5618,PAYLOAD,2023-07-01 18:17:36,14.98331923,0.0003234,69.9997,40.0547,270.2785,89.8003,-3.0746e-05,-4.6e-06,0.0,0 STARLINK-5618,1 55415U 23014AA  23182.76222657 -.00000460  00000-0 -30746-4 0  9999,2 55415  69.9997  40.0547 0003234 270.2785  89.8003 14.98331923 23549,6950.187,96.107,574.3,569.804,0.0
